{"type":"FeatureCollection","features":[{"type":"Feature","properties":{"":0,"Gallery":"Frestonian Gallery","Address":"United Kingdom London 2 Olaf Street","Postcode":"W11 4BE","Web":"http://frestoniangallery.com"},"geometry":{"type":"Point","coordinates":[-0.21775,51.51024]}},{"type":"Feature","properties":{"":1,"Gallery":"Serena Morton","Address":"United Kingdom London 343 Ladbroke Grove","Postcode":"W10 6HA","Web":"http://serenamorton.com/contact-us"},"geometry":{"type":"Point","coordinates":[-0.2138597,51.5236724]}},{"type":"Feature","properties":{"":2,"Gallery":"Westbank","Address":"United Kingdom London 3-5 Thorpe Close Westway","Postcode":"W10 5XL","Web":"http://londonwestbank.com"},"geometry":{"type":"Point","coordinates":[-0.2093884,51.5179343]}},{"type":"Feature","properties":{"":3,"Gallery":"Palm Tree Gallery","Address":"United Kingdom London 291 Portobello Road","Postcode":"W10 5TD","Web":"https://palmtreegallery.com"},"geometry":{"type":"Point","coordinates":[-0.2076413,51.5190059]}},{"type":"Feature","properties":{"":4,"Gallery":"The Muse","Address":"United Kingdom London 269 Portobello Road","Postcode":"W11 1LR","Web":"http://themuseat269.com"},"geometry":{"type":"Point","coordinates":[-0.2070247,51.5180919]}},{"type":"Feature","properties":{"":5,"Gallery":"Graffik Gallery","Address":"United Kingdom London 284 Portobello Road","Postcode":"W10 5TE","Web":"https://graffikgallery.co.uk"},"geometry":{"type":"Point","coordinates":[-0.2074712,51.5194055]}},{"type":"Feature","properties":{"":6,"Gallery":"Golborne Gallery","Address":"United Kingdom London 72 Golborne Road","Postcode":"W10 5PS","Web":"https://golbornegallery.com"},"geometry":{"type":"Point","coordinates":[-0.2083687,51.5221275]}},{"type":"Feature","properties":{"":7,"Gallery":"Unit I Gallery | Workshop","Address":"United Kingdom London 1 Bard Road","Postcode":"W10 6TP","Web":"http://unit1gallery-workshop.com"},"geometry":{"type":"Point","coordinates":[-0.21954,51.51188]}},{"type":"Feature","properties":{"":8,"Gallery":"50 Golborne","Address":"United Kingdom London 50 Golborne Road","Postcode":"W10 5PR","Web":"http://50golborne-artdesign.com"},"geometry":{"type":"Point","coordinates":[-0.2077397,51.5225631]}},{"type":"Feature","properties":{"":9,"Gallery":"Schneideman","Address":"United Kingdom London 331 Portobello Road","Postcode":"W10 5SA","Web":"http://alexschneideman.net"},"geometry":{"type":"Point","coordinates":[-0.209933,51.5210102]}},{"type":"Feature","properties":{"":10,"Gallery":"Maddox Gallery","Address":"United Kingdom London 112 Westbourne Grove","Postcode":"W2 5RU","Web":"https://maddoxgallery.co.uk"},"geometry":{"type":"Point","coordinates":[-0.1945058,51.5152345]}},{"type":"Feature","properties":{"":11,"Gallery":"WhiteWall Central London","Address":"United Kingdom London 100 Westbourne Grove","Postcode":"W2 5RU","Web":"https://whitewallgalleries.com"},"geometry":{"type":"Point","coordinates":[-0.194095,51.5152844]}}]}